[{"OBJECT_NAME":"SHIJIAN-6 02B (SJ-6 02B)","OBJECT_ID":"2006-046B","EPOCH":"2026-03-04T03:57:23.469408","MEAN_MOTION":15.00967169,"ECCENTRICITY":0.0014171,"INCLINATION":97.7049,"RA_OF_ASC_NODE":92.9444,"ARG_OF_PERICENTER":60.8275,"MEAN_ANOMALY":299.4365,"EPHEMERIS_TYPE":0,"CLASSIFICATION_TYPE":"U","NORAD_CAT_ID":29506,"ELEMENT_SET_NO":999,"REV_AT_EPOCH":5498,"BSTAR":0.00026626,"MEAN_MOTION_DOT":3.342e-5,"MEAN_MOTION_DDOT":0},{"OBJECT_NAME":"FGRST (GLAST)","OBJECT_ID":"2008-029A","EPOCH":"2026-03-03T17:19:41.694240","MEAN_MOTION":15.23275126,"ECCENTRICITY":0.0008499,"INCLINATION":25.5812,"RA_OF_ASC_NODE":216.4397,"ARG_OF_PERICENTER":158.2408,"MEAN_ANOMALY":201.8492,"EPHEMERIS_TYPE":0,"CLASSIFICATION_TYPE":"U","NORAD_CAT_ID":33053,"ELEMENT_SET_NO":999,"REV_AT_EPOCH":97973,"BSTAR":0.00020161,"MEAN_MOTION_DOT":5.259e-5,"MEAN_MOTION_DDOT":0},{"OBJECT_NAME":"SDO","OBJECT_ID":"2010-005A","EPOCH":"2026-03-04T01:34:29.042688","MEAN_MOTION":1.00275428,"ECCENTRICITY":3.28e-5,"INCLINATION":34.4299,"RA_OF_ASC_NODE":87.9334,"ARG_OF_PERICENTER":66.0578,"MEAN_ANOMALY":289.5342,"EPHEMERIS_TYPE":0,"CLASSIFICATION_TYPE":"U","NORAD_CAT_ID":36395,"ELEMENT_SET_NO":999,"REV_AT_EPOCH":5900,"BSTAR":0,"MEAN_MOTION_DOT":-6.6e-7,"MEAN_MOTION_DDOT":0},{"OBJECT_NAME":"CRYOSAT 2","OBJECT_ID":"2010-013A","EPOCH":"2026-03-04T02:47:28.514400","MEAN_MOTION":14.51905769,"ECCENTRICITY":0.000212,"INCLINATION":92.0224,"RA_OF_ASC_NODE":251.8448,"ARG_OF_PERICENTER":86.706,"MEAN_ANOMALY":273.4389,"EPHEMERIS_TYPE":0,"CLASSIFICATION_TYPE":"U","NORAD_CAT_ID":36508,"ELEMENT_SET_NO":999,"REV_AT_EPOCH":84283,"BSTAR":7.0443e-5,"MEAN_MOTION_DOT":2.87e-6,"MEAN_MOTION_DDOT":0},{"OBJECT_NAME":"X-SAT","OBJECT_ID":"2011-015C","EPOCH":"2026-03-04T03:02:29.101344","MEAN_MOTION":14.2517047,"ECCENTRICITY":0.0012964,"INCLINATION":98.3415,"RA_OF_ASC_NODE":45.2102,"ARG_OF_PERICENTER":294.2867,"MEAN_ANOMALY":65.6959,"EPHEMERIS_TYPE":0,"CLASSIFICATION_TYPE":"U","NORAD_CAT_ID":37389,"ELEMENT_SET_NO":999,"REV_AT_EPOCH":77271,"BSTAR":0.00016697,"MEAN_MOTION_DOT":3.51e-6,"MEAN_MOTION_DDOT":0},{"OBJECT_NAME":"GCOM-W1 (SHIZUKU)","OBJECT_ID":"2012-025A","EPOCH":"2026-03-03T19:57:01.183680","MEAN_MOTION":14.57088261,"ECCENTRICITY":0.0001509,"INCLINATION":98.2049,"RA_OF_ASC_NODE":4.9801,"ARG_OF_PERICENTER":75.782,"MEAN_ANOMALY":345.7773,"EPHEMERIS_TYPE":0,"CLASSIFICATION_TYPE":"U","NORAD_CAT_ID":38337,"ELEMENT_SET_NO":999,"REV_AT_EPOCH":73369,"BSTAR":0.00021289,"MEAN_MOTION_DOT":9.14e-6,"MEAN_MOTION_DDOT":0},{"OBJECT_NAME":"NUSTAR","OBJECT_ID":"2012-031A","EPOCH":"2026-03-04T06:00:01.999296","MEAN_MOTION":15.07627524,"ECCENTRICITY":0.0008221,"INCLINATION":6.0257,"RA_OF_ASC_NODE":100.6187,"ARG_OF_PERICENTER":342.4768,"MEAN_ANOMALY":84.9905,"EPHEMERIS_TYPE":0,"CLASSIFICATION_TYPE":"U","NORAD_CAT_ID":38358,"ELEMENT_SET_NO":999,"REV_AT_EPOCH":130,"BSTAR":0.00075933,"MEAN_MOTION_DOT":0.00012789,"MEAN_MOTION_DDOT":0},{"OBJECT_NAME":"NEOSSAT","OBJECT_ID":"2013-009D","EPOCH":"2026-03-04T02:54:01.459008","MEAN_MOTION":14.35782155,"ECCENTRICITY":0.0010712,"INCLINATION":98.4136,"RA_OF_ASC_NODE":245.6604,"ARG_OF_PERICENTER":194.1306,"MEAN_ANOMALY":165.9582,"EPHEMERIS_TYPE":0,"CLASSIFICATION_TYPE":"U","NORAD_CAT_ID":39089,"ELEMENT_SET_NO":999,"REV_AT_EPOCH":68166,"BSTAR":0.00012714,"MEAN_MOTION_DOT":3.25e-6,"MEAN_MOTION_DDOT":0},{"OBJECT_NAME":"BRITE-AUSTRIA","OBJECT_ID":"2013-009F","EPOCH":"2026-03-04T00:46:25.331232","MEAN_MOTION":14.36492269,"ECCENTRICITY":0.0010016,"INCLINATION":98.395,"RA_OF_ASC_NODE":245.0814,"ARG_OF_PERICENTER":187.9558,"MEAN_ANOMALY":172.1471,"EPHEMERIS_TYPE":0,"CLASSIFICATION_TYPE":"U","NORAD_CAT_ID":39091,"ELEMENT_SET_NO":999,"REV_AT_EPOCH":68195,"BSTAR":0.00013126,"MEAN_MOTION_DOT":3.43e-6,"MEAN_MOTION_DDOT":0},{"OBJECT_NAME":"IRIS","OBJECT_ID":"2013-033A","EPOCH":"2026-03-04T02:30:22.334688","MEAN_MOTION":14.85625519,"ECCENTRICITY":0.0023498,"INCLINATION":97.9398,"RA_OF_ASC_NODE":262.6746,"ARG_OF_PERICENTER":304.6079,"MEAN_ANOMALY":55.292,"EPHEMERIS_TYPE":0,"CLASSIFICATION_TYPE":"U","NORAD_CAT_ID":39197,"ELEMENT_SET_NO":999,"REV_AT_EPOCH":68477,"BSTAR":0.00024104,"MEAN_MOTION_DOT":2.041e-5,"MEAN_MOTION_DDOT":0},{"OBJECT_NAME":"HISAKI (SPRINT-A)","OBJECT_ID":"2013-049A","EPOCH":"2026-03-04T04:17:00.297888","MEAN_MOTION":13.55530068,"ECCENTRICITY":0.0136723,"INCLINATION":29.722,"RA_OF_ASC_NODE":33.8742,"ARG_OF_PERICENTER":245.4387,"MEAN_ANOMALY":113.188,"EPHEMERIS_TYPE":0,"CLASSIFICATION_TYPE":"U","NORAD_CAT_ID":39253,"ELEMENT_SET_NO":999,"REV_AT_EPOCH":61716,"BSTAR":7.1262e-5,"MEAN_MOTION_DOT":1.2e-6,"MEAN_MOTION_DDOT":0},{"OBJECT_NAME":"CASSIOPE","OBJECT_ID":"2013-055A","EPOCH":"2026-03-04T03:36:51.928992","MEAN_MOTION":15.18280062,"ECCENTRICITY":0.0317347,"INCLINATION":80.9193,"RA_OF_ASC_NODE":193.5985,"ARG_OF_PERICENTER":54.6868,"MEAN_ANOMALY":308.3594,"EPHEMERIS_TYPE":0,"CLASSIFICATION_TYPE":"U","NORAD_CAT_ID":39265,"ELEMENT_SET_NO":999,"REV_AT_EPOCH":65169,"BSTAR":0.00058222,"MEAN_MOTION_DOT":0.00048213,"MEAN_MOTION_DDOT":-4.4073e-7},{"OBJECT_NAME":"STSAT-3","OBJECT_ID":"2013-066G","EPOCH":"2026-03-04T03:35:59.093664","MEAN_MOTION":15.02028267,"ECCENTRICITY":0.0012071,"INCLINATION":97.6055,"RA_OF_ASC_NODE":34.8798,"ARG_OF_PERICENTER":33.5577,"MEAN_ANOMALY":326.641,"EPHEMERIS_TYPE":0,"CLASSIFICATION_TYPE":"U","NORAD_CAT_ID":39422,"ELEMENT_SET_NO":999,"REV_AT_EPOCH":66843,"BSTAR":0.00028467,"MEAN_MOTION_DOT":3.679e-5,"MEAN_MOTION_DDOT":0},{"OBJECT_NAME":"SWARM B","OBJECT_ID":"2013-067A","EPOCH":"2026-03-04T02:26:35.369664","MEAN_MOTION":15.27793251,"ECCENTRICITY":0.000371,"INCLINATION":87.7486,"RA_OF_ASC_NODE":14.1809,"ARG_OF_PERICENTER":89.8806,"MEAN_ANOMALY":270.2868,"EPHEMERIS_TYPE":0,"CLASSIFICATION_TYPE":"U","NORAD_CAT_ID":39451,"ELEMENT_SET_NO":999,"REV_AT_EPOCH":66719,"BSTAR":0.00023947,"MEAN_MOTION_DOT":6.53e-5,"MEAN_MOTION_DDOT":0},{"OBJECT_NAME":"SWARM A","OBJECT_ID":"2013-067B","EPOCH":"2026-03-04T02:25:41.434464","MEAN_MOTION":15.48600726,"ECCENTRICITY":0.0003022,"INCLINATION":87.3287,"RA_OF_ASC_NODE":95.229,"ARG_OF_PERICENTER":93.1119,"MEAN_ANOMALY":267.0486,"EPHEMERIS_TYPE":0,"CLASSIFICATION_TYPE":"U","NORAD_CAT_ID":39452,"ELEMENT_SET_NO":999,"REV_AT_EPOCH":68997,"BSTAR":0.0002866,"MEAN_MOTION_DOT":0.00015331,"MEAN_MOTION_DDOT":0},{"OBJECT_NAME":"SWARM C","OBJECT_ID":"2013-067C","EPOCH":"2026-03-04T02:25:32.011680","MEAN_MOTION":15.48600013,"ECCENTRICITY":0.0003021,"INCLINATION":87.3284,"RA_OF_ASC_NODE":93.8107,"ARG_OF_PERICENTER":93.1571,"MEAN_ANOMALY":267.0034,"EPHEMERIS_TYPE":0,"CLASSIFICATION_TYPE":"U","NORAD_CAT_ID":39453,"ELEMENT_SET_NO":999,"REV_AT_EPOCH":68993,"BSTAR":0.00028424,"MEAN_MOTION_DOT":0.00015204,"MEAN_MOTION_DDOT":0},{"OBJECT_NAME":"BRITE-CA1 (TORONTO)","OBJECT_ID":"2014-033L","EPOCH":"2026-03-03T07:25:15.093408","MEAN_MOTION":14.72440643,"ECCENTRICITY":0.00776971,"INCLINATION":97.9556,"RA_OF_ASC_NODE":193.3093,"ARG_OF_PERICENTER":255.6268,"MEAN_ANOMALY":103.6306,"EPHEMERIS_TYPE":0,"CLASSIFICATION_TYPE":"U","NORAD_CAT_ID":40020,"ELEMENT_SET_NO":999,"REV_AT_EPOCH":62663,"BSTAR":0.00025975949,"MEAN_MOTION_DOT":1.673e-5,"MEAN_MOTION_DDOT":0}]
