SHIJIAN-6 02B (SJ-6 02B)
1 29506U 06046B   26063.16485497  .00003342  00000+0  26626-3 0  9995
2 29506  97.7049  92.9444 0014171  60.8275 299.4365 15.00967169 54982
FGRST (GLAST)           
1 33053U 08029A   26062.72201035  .00005259  00000+0  20161-3 0  9992
2 33053  25.5812 216.4397 0008499 158.2408 201.8492 15.23275126979734
SDO                     
1 36395U 10005A   26063.06561392 -.00000066  00000+0  00000+0 0  9992
2 36395  34.4299  87.9334 0000328  66.0578 289.5342  1.00275428 59004
CRYOSAT 2               
1 36508U 10013A   26063.11630225  .00000287  00000+0  70443-4 0  9992
2 36508  92.0224 251.8448 0002120  86.7060 273.4389 14.51905769842835
X-SAT                   
1 37389U 11015C   26063.12672571  .00000351  00000+0  16697-3 0  9996
2 37389  98.3415  45.2102 0012964 294.2867  65.6959 14.25170470772711
GCOM-W1 (SHIZUKU)       
1 38337U 12025A   26062.83126370  .00000914  00000+0  21289-3 0  9998
2 38337  98.2049   4.9801 0001509  75.7820 345.7773 14.57088261733690
NUSTAR                  
1 38358U 12031A   26063.25002314  .00012789  00000+0  75933-3 0  9994
2 38358   6.0257 100.6187 0008221 342.4768  84.9905 15.07627524  1307
NEOSSAT                 
1 39089U 13009D   26063.12085022  .00000325  00000+0  12714-3 0  9996
2 39089  98.4136 245.6604 0010712 194.1306 165.9582 14.35782155681668
BRITE-AUSTRIA           
1 39091U 13009F   26063.03223763  .00000343  00000+0  13126-3 0  9993
2 39091  98.3950 245.0814 0010016 187.9558 172.1471 14.36492269681951
IRIS                    
1 39197U 13033A   26063.10442517  .00002041  00000+0  24104-3 0  9990
2 39197  97.9398 262.6746 0023498 304.6079  55.2920 14.85625519684775
HISAKI (SPRINT-A)       
1 39253U 13049A   26063.17847567  .00000120  00000+0  71262-4 0  9995
2 39253  29.7220  33.8742 0136723 245.4387 113.1880 13.55530068617167
CASSIOPE                
1 39265U 13055A   26063.15060103  .00048213 -44073-6  58222-3 0  9997
2 39265  80.9193 193.5985 0317347  54.6868 308.3594 15.18280062651691
STSAT-3                 
1 39422U 13066G   26063.14998951  .00003679  00000+0  28467-3 0  9993
2 39422  97.6055  34.8798 0012071  33.5577 326.6410 15.02028267668436
SWARM B                 
1 39451U 13067A   26063.10179826  .00006530  00000+0  23947-3 0  9991
2 39451  87.7486  14.1809 0003710  89.8806 270.2868 15.27793251667191
SWARM A                 
1 39452U 13067B   26063.10117401  .00015331  00000+0  28660-3 0  9999
2 39452  87.3287  95.2290 0003022  93.1119 267.0486 15.48600726689979
SWARM C                 
1 39453U 13067C   26063.10106495  .00015204  00000+0  28424-3 0  9998
2 39453  87.3284  93.8107 0003021  93.1571 267.0034 15.48600013689933
BRITE-CA1 (TORONTO)     
1 40020U 14033L   26062.30920247  .00001673  00000+0  25976-3 0  9998
2 40020  97.9556 193.3093 0077697 255.6268 103.6306 14.72440643626634
